{"spkid": "50703103", "covariance": {"epoch": "2459047.5", "elements": [{"label": "e", "value": ".4253584957353018", "title": "eccentricity", "units": null, "sigma": 6.54820971905834e-08, "name": "e"}, {"units": "au", "title": "perihelion distance", "value": ".8083661577542721", "name": "q", "sigma": 9.18415053744818e-08, "label": "q"}, {"label": "tp", "title": "time of perihelion passage", "value": "2458771.149752818542", "units": "TDB", "sigma": 1.64066005184297e-05, "name": "tp"}, {"label": "node", "name": "om", "sigma": 2.9516023957768e-05, "title": "longitude of the ascending node", "value": "314.3278593735272", "units": "deg"}, {"units": "deg", "title": "argument of perihelion", "value": "57.26630930511875", "sigma": 3.14420599704867e-05, "name": "w", "label": "peri"}, {"title": "inclination", "value": "6.027454858788875", "units": "deg", "name": "i", "sigma": 6.49807500634505e-06, "label": "i"}], "data": [["4.287905052477016E-15", "-6.013429354745943E-15", "2.254795827929605E-13", "3.997046349489006E-14", "-4.469313802532937E-13", "-5.989391617055782E-14"], ["-6.013429354745943E-15", "8.434862109450959E-15", "-3.241433350999691E-13", "-5.461549003777356E-14", "6.221454109323161E-13", "8.438228621047394E-14"], ["2.254795827929605E-13", "-3.241433350999691E-13", "2.691765405713381E-10", "2.576668585220566E-12", "1.16806951288551E-10", "-5.876325816159791E-11"], ["3.997046349489006E-14", "-5.461549003777356E-14", "2.576668585220566E-12", "8.711956702755357E-10", "-8.699064167950237E-10", "-1.248653196278458E-10"], ["-4.469313802532937E-13", "6.221454109323161E-13", "1.16806951288551E-10", "-8.699064167950237E-10", "9.886031351876822E-10", "9.973099997210367E-11"], ["-5.989391617055782E-14", "8.438228621047394E-14", "-5.876325816159791E-11", "-1.248653196278458E-10", "9.973099997210367E-11", "4.222497878808627E-11"]], "labels": ["e", "q", "tp", "node", "peri", "i"]}, "elements": [{"label": "e", "name": "e", "sigma": "6.5458E-8", "units": null, "title": "eccentricity", "value": ".42533713091285"}, {"units": "au", "title": "semi-major axis", "value": "1.406774197627622", "sigma": "2.2478E-9", "name": "a", "label": "a"}, {"units": "au", "title": "perihelion distance", "value": ".8084208965664627", "name": "q", "sigma": "9.1893E-8", "label": "q"}, {"label": "i", "name": "i", "sigma": "6.4975E-6", "value": "6.026212896879285", "title": "inclination; angle with respect to x-y ecliptic plane", "units": "deg"}, {"title": "longitude of the ascending node", "value": "314.262443635253", "units": "deg", "sigma": "2.9496E-5", "name": "om", "label": "node"}, {"sigma": "3.144E-5", "name": "w", "units": "deg", "value": "57.30540666822073", "title": "argument of perihelion", "label": "peri"}, {"label": "M", "sigma": "8.9505E-6", "name": "ma", "title": "mean anomaly", "value": "354.9686167281021", "units": "deg"}, {"name": "tp", "sigma": "1.5149E-5", "units": "TDB", "value": "2461209.017652516591", "title": "time of perihelion passage", "label": "tp"}, {"label": "period", "sigma": "1.4607E-6", "name": "per", "value": "609.445701165197", "title": "sidereal orbital period", "units": "d"}, {"sigma": "1.4158E-9", "name": "n", "units": "deg/d", "value": ".5907006962420398", "title": "mean motion", "label": "n"}, {"label": "Q", "sigma": "3.2038E-9", "name": "ad", "value": "2.005127498688781", "title": "aphelion distance", "units": "au"}], "epoch": "2461200.5"}